[
    {
        "OBJECT_NAME": "STARLINK-3893",
        "OBJECT_ID": "2022-051AV",
        "EPOCH": "2023-09-14T00:50:07.700640",
        "MEAN_MOTION": 15.08834535,
        "ECCENTRICITY": 0.0001459,
        "INCLINATION": 53.2169,
        "RA_OF_ASC_NODE": 248.7413,
        "ARG_OF_PERICENTER": 92.9622,
        "MEAN_ANOMALY": 267.1537,
        "EPHEMERIS_TYPE": 0,
        "CLASSIFICATION_TYPE": "U",
        "NORAD_CAT_ID": 52579,
        "ELEMENT_SET_NO": 999,
        "REV_AT_EPOCH": 7442,
        "BSTAR": -0.000028368,
        "MEAN_MOTION_DOT": -0.00000739,
        "MEAN_MOTION_DDOT": 0
    },
    {
        "OBJECT_NAME": "STARLINK-3919",
        "OBJECT_ID": "2022-051AW",
        "EPOCH": "2023-09-13T16:59:52.084608",
        "MEAN_MOTION": 15.08830021,
        "ECCENTRICITY": 0.0001587,
        "INCLINATION": 53.214,
        "RA_OF_ASC_NODE": 250.2195,
        "ARG_OF_PERICENTER": 91.3794,
        "MEAN_ANOMALY": 268.738,
        "EPHEMERIS_TYPE": 0,
        "CLASSIFICATION_TYPE": "U",
        "NORAD_CAT_ID": 52580,
        "ELEMENT_SET_NO": 999,
        "REV_AT_EPOCH": 7430,
        "BSTAR": -0.00023645,
        "MEAN_MOTION_DOT": -0.00004048,
        "MEAN_MOTION_DDOT": 0
    },
    {
        "OBJECT_NAME": "STARLINK-3915",
        "OBJECT_ID": "2022-051AX",
        "EPOCH": "2023-09-14T02:51:21.376224",
        "MEAN_MOTION": 15.0882882,
        "ECCENTRICITY": 0.0001759,
        "INCLINATION": 53.2172,
        "RA_OF_ASC_NODE": 233.3622,
        "ARG_OF_PERICENTER": 86.3739,
        "MEAN_ANOMALY": 273.7455,
        "EPHEMERIS_TYPE": 0,
        "CLASSIFICATION_TYPE": "U",
        "NORAD_CAT_ID": 52581,
        "ELEMENT_SET_NO": 999,
        "REV_AT_EPOCH": 7464,
        "BSTAR": 0.0000017122,
        "MEAN_MOTION_DOT": -0.00000261,
        "MEAN_MOTION_DDOT": 0
    },
    {
        "OBJECT_NAME": "STARLINK-3886",
        "OBJECT_ID": "2022-051AY",
        "EPOCH": "2023-09-14T06:12:42.674400",
        "MEAN_MOTION": 15.08834763,
        "ECCENTRICITY": 0.000136,
        "INCLINATION": 53.2155,
        "RA_OF_ASC_NODE": 232.7325,
        "ARG_OF_PERICENTER": 91.1067,
        "MEAN_ANOMALY": 269.0081,
        "EPHEMERIS_TYPE": 0,
        "CLASSIFICATION_TYPE": "U",
        "NORAD_CAT_ID": 52582,
        "ELEMENT_SET_NO": 999,
        "REV_AT_EPOCH": 7466,
        "BSTAR": -0.000025833,
        "MEAN_MOTION_DOT": -0.00000699,
        "MEAN_MOTION_DDOT": 0
    },
    {
        "OBJECT_NAME": "STARLINK-3895",
        "OBJECT_ID": "2022-051AZ",
        "EPOCH": "2023-09-14T02:46:03.557280",
        "MEAN_MOTION": 15.08829749,
        "ECCENTRICITY": 0.0001358,
        "INCLINATION": 53.2165,
        "RA_OF_ASC_NODE": 233.3795,
        "ARG_OF_PERICENTER": 87.682,
        "MEAN_ANOMALY": 272.4327,
        "EPHEMERIS_TYPE": 0,
        "CLASSIFICATION_TYPE": "U",
        "NORAD_CAT_ID": 52583,
        "ELEMENT_SET_NO": 999,
        "REV_AT_EPOCH": 7464,
        "BSTAR": -0.000044976,
        "MEAN_MOTION_DOT": -0.00001003,
        "MEAN_MOTION_DDOT": 0
    },
    {
        "OBJECT_NAME": "STARLINK-3922",
        "OBJECT_ID": "2022-051BA",
        "EPOCH": "2023-09-14T07:42:47.988000",
        "MEAN_MOTION": 15.08835707,
        "ECCENTRICITY": 0.0001376,
        "INCLINATION": 53.2161,
        "RA_OF_ASC_NODE": 232.4509,
        "ARG_OF_PERICENTER": 89.9355,
        "MEAN_ANOMALY": 270.1795,
        "EPHEMERIS_TYPE": 0,
        "CLASSIFICATION_TYPE": "U",
        "NORAD_CAT_ID": 52584,
        "ELEMENT_SET_NO": 999,
        "REV_AT_EPOCH": 7467,
        "BSTAR": 0.000011469,
        "MEAN_MOTION_DOT": -0.00000105,
        "MEAN_MOTION_DDOT": 0
    },
    {
        "OBJECT_NAME": "STARLINK-3906",
        "OBJECT_ID": "2022-051BB",
        "EPOCH": "2023-09-13T15:22:25.956480",
        "MEAN_MOTION": 15.08835514,
        "ECCENTRICITY": 0.0001263,
        "INCLINATION": 53.2152,
        "RA_OF_ASC_NODE": 235.4717,
        "ARG_OF_PERICENTER": 100.3039,
        "MEAN_ANOMALY": 259.8095,
        "EPHEMERIS_TYPE": 0,
        "CLASSIFICATION_TYPE": "U",
        "NORAD_CAT_ID": 52585,
        "ELEMENT_SET_NO": 999,
        "REV_AT_EPOCH": 7450,
        "BSTAR": -0.00029039,
        "MEAN_MOTION_DOT": -0.00004906,
        "MEAN_MOTION_DDOT": 0
    },
    {
        "OBJECT_NAME": "STARLINK-3910",
        "OBJECT_ID": "2022-051BC",
        "EPOCH": "2023-09-14T02:40:47.198496",
        "MEAN_MOTION": 15.0881055,
        "ECCENTRICITY": 0.0001787,
        "INCLINATION": 53.2173,
        "RA_OF_ASC_NODE": 233.4008,
        "ARG_OF_PERICENTER": 102.7039,
        "MEAN_ANOMALY": 257.4153,
        "EPHEMERIS_TYPE": 0,
        "CLASSIFICATION_TYPE": "U",
        "NORAD_CAT_ID": 52586,
        "ELEMENT_SET_NO": 999,
        "REV_AT_EPOCH": 7464,
        "BSTAR": -0.00022579,
        "MEAN_MOTION_DOT": -0.00003877,
        "MEAN_MOTION_DDOT": 0
    },
    {
        "OBJECT_NAME": "STARLINK-3867",
        "OBJECT_ID": "2022-051BD",
        "EPOCH": "2023-09-14T06:00:00.999648",
        "MEAN_MOTION": 15.08845289,
        "ECCENTRICITY": 0.000129,
        "INCLINATION": 53.2147,
        "RA_OF_ASC_NODE": 232.6305,
        "ARG_OF_PERICENTER": 89.3165,
        "MEAN_ANOMALY": 57.7983,
        "EPHEMERIS_TYPE": 0,
        "CLASSIFICATION_TYPE": "U",
        "NORAD_CAT_ID": 52587,
        "ELEMENT_SET_NO": 999,
        "REV_AT_EPOCH": 7466,
        "BSTAR": -0.0023398,
        "MEAN_MOTION_DOT": -0.00037338,
        "MEAN_MOTION_DDOT": 0
    },
    {
        "OBJECT_NAME": "STARLINK-3917",
        "OBJECT_ID": "2022-051BE",
        "EPOCH": "2023-09-14T02:24:51.253344",
        "MEAN_MOTION": 15.0882932,
        "ECCENTRICITY": 0.0001394,
        "INCLINATION": 53.2173,
        "RA_OF_ASC_NODE": 233.4467,
        "ARG_OF_PERICENTER": 96.541,
        "MEAN_ANOMALY": 263.5741,
        "EPHEMERIS_TYPE": 0,
        "CLASSIFICATION_TYPE": "U",
        "NORAD_CAT_ID": 52588,
        "ELEMENT_SET_NO": 999,
        "REV_AT_EPOCH": 7464,
        "BSTAR": -0.000083332,
        "MEAN_MOTION_DOT": -0.00001613,
        "MEAN_MOTION_DDOT": 0
    },
    {
        "OBJECT_NAME": "STARLINK-4019",
        "OBJECT_ID": "2022-052A",
        "EPOCH": "2023-09-14T09:41:22.500096",
        "MEAN_MOTION": 15.08826314,
        "ECCENTRICITY": 0.0001285,
        "INCLINATION": 53.2186,
        "RA_OF_ASC_NODE": 37.0866,
        "ARG_OF_PERICENTER": 98.0649,
        "MEAN_ANOMALY": 262.0489,
        "EPHEMERIS_TYPE": 0,
        "CLASSIFICATION_TYPE": "U",
        "NORAD_CAT_ID": 52598,
        "ELEMENT_SET_NO": 999,
        "REV_AT_EPOCH": 7418,
        "BSTAR": -0.000048898,
        "MEAN_MOTION_DOT": -0.00001066,
        "MEAN_MOTION_DDOT": 0
    },
    {
        "OBJECT_NAME": "STARLINK-4024",
        "OBJECT_ID": "2022-052B",
        "EPOCH": "2023-09-14T09:23:29.818176",
        "MEAN_MOTION": 15.08833206,
        "ECCENTRICITY": 0.0001528,
        "INCLINATION": 53.2192,
        "RA_OF_ASC_NODE": 32.2386,
        "ARG_OF_PERICENTER": 114.1117,
        "MEAN_ANOMALY": 246.0035,
        "EPHEMERIS_TYPE": 0,
        "CLASSIFICATION_TYPE": "U",
        "NORAD_CAT_ID": 52599,
        "ELEMENT_SET_NO": 999,
        "REV_AT_EPOCH": 7425,
        "BSTAR": 0.000025371,
        "MEAN_MOTION_DOT": 0.00000116,
        "MEAN_MOTION_DDOT": 0
    }
]