STARLINK-3893           
1 52579U 22051AV  23257.03481135 -.00000739  00000+0 -28368-4 0  9993
2 52579  53.2169 248.7413 0001459  92.9622 267.1537 15.08834535 74424
STARLINK-3919           
1 52580U 22051AW  23256.70824172 -.00004048  00000+0 -23645-3 0  9999
2 52580  53.2140 250.2195 0001587  91.3794 268.7380 15.08830021 74301
STARLINK-3915           
1 52581U 22051AX  23257.11899741 -.00000261  00000+0  17122-5 0  9997
2 52581  53.2172 233.3622 0001759  86.3739 273.7455 15.08828820 74648
STARLINK-3886           
1 52582U 22051AY  23257.25882725 -.00000699  00000+0 -25833-4 0  9990
2 52582  53.2155 232.7325 0001360  91.1067 269.0081 15.08834763 74667
STARLINK-3895           
1 52583U 22051AZ  23257.11531895 -.00001003  00000+0 -44976-4 0  9994
2 52583  53.2165 233.3795 0001358  87.6820 272.4327 15.08829749 74648
STARLINK-3922           
1 52584U 22051BA  23257.32138875 -.00000105  00000+0  11469-4 0  9991
2 52584  53.2161 232.4509 0001376  89.9355 270.1795 15.08835707 74674
STARLINK-3906           
1 52585U 22051BB  23256.64057820 -.00004906  00000+0 -29039-3 0  9991
2 52585  53.2152 235.4717 0001263 100.3039 259.8095 15.08835514 74506
STARLINK-3910           
1 52586U 22051BC  23257.11165739 -.00003877  00000+0 -22579-3 0  9992
2 52586  53.2173 233.4008 0001787 102.7039 257.4153 15.08810550 74645
STARLINK-3867           
1 52587U 22051BD  23257.25001157 -.00037338  00000+0 -23398-2 0  9999
2 52587  53.2147 232.6305 0001290  89.3165  57.7983 15.08845289 74668
STARLINK-3917           
1 52588U 22051BE  23257.10059321 -.00001613  00000+0 -83332-4 0  9993
2 52588  53.2173 233.4467 0001394  96.5410 263.5741 15.08829320 74649
STARLINK-4019           
1 52598U 22052A   23257.40373264 -.00001066  00000+0 -48898-4 0  9993
2 52598  53.2186  37.0866 0001285  98.0649 262.0489 15.08826314 74187
STARLINK-4024           
1 52599U 22052B   23257.39131734  .00000116  00000+0  25371-4 0  9990
2 52599  53.2192  32.2386 0001528 114.1117 246.0035 15.08833206 74254
